[{"OBJECT_NAME":"STARLINK-3992","OBJECT_ID":"2022-052AF","EPOCH":"2026-03-09T20:21:16.592544","MEAN_MOTION":15.08828468,"ECCENTRICITY":0.00012442,"INCLINATION":53.2159,"RA_OF_ASC_NODE":268.4124,"ARG_OF_PERICENTER":95.8183,"MEAN_ANOMALY":264.2951,"EPHEMERIS_TYPE":0,"CLASSIFICATION_TYPE":"U","NORAD_CAT_ID":52627,"ELEMENT_SET_NO":999,"REV_AT_EPOCH":21102,"BSTAR":-7.0787003e-5,"MEAN_MOTION_DOT":-1.414e-5,"MEAN_MOTION_DDOT":0},{"OBJECT_NAME":"COSMOS 886 DEB","OBJECT_ID":"1976-126CG","EPOCH":"2026-03-09T13:42:09.387072","MEAN_MOTION":14.65936144,"ECCENTRICITY":0.0273927,"INCLINATION":65.5637,"RA_OF_ASC_NODE":138.088,"ARG_OF_PERICENTER":273.4033,"MEAN_ANOMALY":83.5779,"EPHEMERIS_TYPE":0,"CLASSIFICATION_TYPE":"U","NORAD_CAT_ID":20673,"ELEMENT_SET_NO":999,"REV_AT_EPOCH":71273,"BSTAR":0.0023391,"MEAN_MOTION_DOT":0.00022449,"MEAN_MOTION_DDOT":0}]
